[{"coord":[44.933334,4.9],"city":"VALENCE","name":"SELECT T T","postcode":"26000","adress":"169 AVENUE VICTOR HUGO","sector":"Activit�s des agences de travail temporaire"},{"coord":[44.733334,4.683333],"city":"PRIVAS","name":"MONSIEUR DENIS ASTIC","postcode":"7000","adress":"7 AV DE CHOMERAC","sector":"Restauration de type rapide"},{"coord":[45.35,4.9],"city":"CHANAS","name":"GUY BABETH SERVICES","postcode":"38150","adress":"IMPASSE DU BELVEDERE","sector":"Entretien et r�paration de v�hicules automobiles l�gers"},{"coord":[45.35,4.9],"city":"CHANAS","name":"GUY BABETH SERVICES","postcode":"38150","adress":"IMP DU BELVEDERE","sector":"Entretien et r�paration de v�hicules automobiles l�gers"},{"coord":[45.15,5.05],"city":"SAINT DONAT SUR L\u0027HERBASSE","name":"MONSIEUR JACQUES SAUSSURE","postcode":"26260","adress":"455 RUE ZA LES SABLES","sector":"Activit�s des agences de travail temporaire"},{"coord":[45.15,5.05],"city":"SAINT DONAT SUR L\u0027HERBASSE","name":"MONSIEUR JACQUES SAUSSURE","postcode":"26260","adress":"455 RUE ZA LES SABLES","sector":"Fabrication de charpentes et d\u0027autres menuiseries"},{"coord":[44.7,4.466667],"city":"LANAS","name":"MONSIEUR PHILIPPE RIVIERE","postcode":"7200","adress":"10 PLACE DU VILLAGE","sector":"D�bits de boissons"},{"coord":[44.7,4.466667],"city":"LANAS","name":"MONSIEUR PHILIPPE RIVIERE","postcode":"7200","adress":"10 PL DU VILLAGE","sector":"D�bits de boissons"},{"coord":[45.15,5.05],"city":"SAINT DONAT SUR L\u0027HERBASSE","name":"MONSIEUR JEAN-CLAUDE COSTE","postcode":"26260","adress":"42 IMP THIVOLLE - LES MORANDS","sector":"H�bergement touristique et autre h�bergement de courte dur�e"},{"coord":[45.15,5.05],"city":"BREN","name":"MONSIEUR JEAN-CLAUDE COSTE","postcode":"26260","adress":"42 IMP THIVOLLE - LES MORANDS","sector":"H�bergement touristique et autre h�bergement de courte dur�e"},{"coord":[44.566666,4.75],"city":"MONTELIMAR","name":"AGENCE LAUZIER","postcode":"26200","adress":"27 BOULEVARD MEYNOT","sector":"Agences immobili�res"},{"coord":[44.566666,4.75],"city":"MONTELIMAR","name":"AGENCE LAUZIER","postcode":"26200","adress":"27 BD MEYNOT","sector":"Agences immobili�res"},{"coord":[44.75,4.75],"city":"LE POUZIN","name":"MONSIEUR DAVID BOIRA","postcode":"7250","adress":"9 B RUE JOLIOT CURIE","sector":"Travaux de peinture et vitrerie"},{"coord":[44.783333,4.916667],"city":"PORTES LES VALENCE","name":"MADAME DANIELLE MAISONNA","postcode":"26800","adress":"44 RUE JEAN JAURES","sector":"H�tels et h�bergement similaire"},{"coord":[45.11667,4.533333],"city":"LALOUVESC","name":"HOLDING JEAN BERANGER FAURIE","postcode":"7520","adress":"QUAI BRUCHO","sector":"Activit�s des soci�t�s holding"},{"coord":[45.11667,4.533333],"city":"LALOUVESC","name":"HOLDING JEAN BERANGER FAURIE","postcode":"7520","adress":"QUAI BRUCHO","sector":"Activit�s des soci�t�s holding"},{"coord":[44.95,4.883333],"city":"BOURG LES VALENCE","name":"ROHEJE","postcode":"26500","adress":"14 ROUTE DES SELLES","sector":"Location de terrains et d\u0027autres biens immobiliers"},{"coord":[44.95,4.883333],"city":"BOURG LES VALENCE","name":"ROHEJE","postcode":"26500","adress":"14 RTE DES SELLES","sector":"Location de terrains et d\u0027autres biens immobiliers"},{"coord":[44.95,4.883333],"city":"BOURG LES VALENCE","name":"BOUCHERIE TEKHIL","postcode":"26500","adress":"130 RTE LA ROCHE ST MARCEL VC 10","sector":"Comm. d�tail viandes \u0026 produits � base de viande (magas. sp�c.)"},{"coord":[44.95,4.883333],"city":"BOURG LES VALENCE","name":"BOUCHERIE TEKHIL","postcode":"26500","adress":"130 RTE DU PONT DE LA ROCHE","sector":"Comm. d�tail viandes \u0026 produits � base de viande (magas. sp�c.)"},{"coord":[44.566666,4.75],"city":"MONTELIMAR","name":"CHARLES ANDRE MANAGEMENT","postcode":"26200","adress":"GOURNIER","sector":"Activit�s sp�cialis�es, scientifiques et techniques diverses"},{"coord":[44.566666,4.75],"city":"MONTELIMAR","name":"GCA CARGO","postcode":"26200","adress":"4 ALL DU PORT","sector":"Affr�tement et organisation des transports"},{"coord":[45.15,5.383333],"city":"CHEVRIERES","name":"MONSIEUR LOUIS HERENGER","postcode":"38160","adress":"LIEU DIT LA MATHIEU","sector":"Culture d\u0027aut. fruits d\u0027arbres ou d\u0027arbustes et de fruits a coque"},{"coord":[45.216667,4.783333],"city":"PEAUGRES","name":"MONSIEUR LUDOVIC DURANTON","postcode":"7340","adress":"67 RTE DE VERLIEUX","sector":"�levage d\u0027autres animaux"},{"coord":[45.216667,4.783333],"city":"PEAUGRES","name":"MONSIEUR LUDOVIC DURANTON","postcode":"7340","adress":"67 RTE DE VERLIEUX","sector":"�levage d\u0027autres animaux"},{"coord":[45.216667,4.783333],"city":"PEAUGRES","name":"MONSIEUR LUDOVIC DURANTON","postcode":"7340","adress":"67 RTE DE VERLIEUX","sector":"Cr�ation artistique relevant des arts plastiques"},{"coord":[45.216667,4.783333],"city":"ANDANCE","name":"MADAME NATHALIE KEPPNER","postcode":"7340","adress":"110 CHEMIN DU COTEAU","sector":"Vente � distance sur catalogue g�n�ral"},{"coord":[45.216667,4.783333],"city":"ANDANCE","name":"MADAME NATHALIE KEPPNER","postcode":"7340","adress":"110 CHE DU COTEAU","sector":"Vente � distance sur catalogue g�n�ral"},{"coord":[45.36667,4.75],"city":"MACLAS","name":"SPMH","postcode":"42520","adress":"BRUNARIE BASSE","sector":"Location de terrains et d\u0027autres biens immobiliers"},{"coord":[45.35,4.9],"city":"VERNIOZ","name":"DOMO SAPIENS","postcode":"38150","adress":"1014 ROUTE DES REVOLETS","sector":"Comm. de gros d\u0027�qpts et composants �lectroniques et de t�l�comm."},{"coord":[45.35,4.9],"city":"VERNIOZ","name":"DOMO SAPIENS","postcode":"38150","adress":"1014 RTE DES REVOLETS","sector":"Comm. de gros d\u0027�qpts et composants �lectroniques et de t�l�comm."},{"coord":[45.083332,5.05],"city":"PEYRINS","name":"SCI BELLECOTE","postcode":"26380","adress":"QUARTIER CHATEAUROUX","sector":"Location de terrains et d\u0027autres biens immobiliers"},{"coord":[45.083332,5.05],"city":"PEYRINS","name":"SCI BELLECOTE","postcode":"26380","adress":"160 MTE DE LA TOUR","sector":"Location de terrains et d\u0027autres biens immobiliers"},{"coord":[45.05,5.05],"city":"ROMANS SUR ISERE","name":"MONSIEUR XAVIER COFFIN","postcode":"26100","adress":"14 RUE DANTON","sector":"Autres activit�s li�es au sport"},{"coord":[45.033333,5.183333],"city":"BOURG DE PEAGE","name":"MONSIEUR XAVIER COFFIN","postcode":"26300","adress":"4 RUE MARCEL PAGNOL","sector":"Enseignement de disciplines sportives et d\u0027activit�s de loisirs"},{"coord":[45.033333,5.183333],"city":"BOURG DE PEAGE","name":"MONSIEUR BADR EL MINSARI","postcode":"26300","adress":"3 RUE CHARLES COMBE","sector":"Autres commerces de d�tail sur �ventaires et march�s"},{"coord":[45.05,5.05],"city":"ROMANS SUR ISERE","name":"MONSIEUR JEAN FRANCOIS LECHEVALIER","postcode":"26100","adress":"3 B RUE DANIELLE CASANOVA","sector":"Travaux d\u0027installation �lectrique dans tous locaux"},{"coord":[45.033333,5.183333],"city":"BOURG DE PEAGE","name":"MONSIEUR JEAN FRANCOIS LECHEVALIER","postcode":"26300","adress":"9 ALL DES CEDRES","sector":"Travaux d\u0027installation �lectrique dans tous locaux"},{"coord":[44.783333,4.916667],"city":"ETOILE SUR RHONE","name":"MADAME GERALDINE GERDIL","postcode":"26800","adress":"920 CHE L\u0027ARTHAUD","sector":"Activit�s des infirmiers et des sages-femmes"},{"coord":[44.783333,4.916667],"city":"PORTES LES VALENCE","name":"MADAME GERALDINE GERDIL","postcode":"26800","adress":"8 RUE DU HUIT MAI 1945","sector":"Activit�s des infirmiers et des sages-femmes"},{"coord":[45.35,4.9],"city":"CHANAS","name":"MADAME JULIE ANNE ALVARO","postcode":"38150","adress":"7 RUE DE L AVENIR","sector":"Activit�s de soutien � la production animale"},{"coord":[45.35,4.9],"city":"CHANAS","name":"MADAME JULIE ANNE ALVARO","postcode":"38150","adress":"7 RUE DE L\u0027AVENIR","sector":"Activit�s de soutien � la production animale"},{"coord":[45.35,4.9],"city":"CHANAS","name":"MADAME JULIE ANNE ALVARO","postcode":"38150","adress":"7 RUE DE L\u0027AVENIR","sector":"Autres activit�s li�es au sport"},{"coord":[44.933334,4.9],"city":"VALENCE","name":"AXESS OWNS","postcode":"26000","adress":"1 RUE WOLFGANG AMADEUS MOZART","sector":"Traitement de donn�es, h�bergement et activit�s connexes"},{"coord":[45.35,4.9],"city":"VERNIOZ","name":"MADAME MARION MAINGAUT","postcode":"38150","adress":"16 ROUTE DES REVOLETS","sector":"Activit� profess. r��ducation appareillage \u0026 p�dicures-podologues"},{"coord":[45.35,4.9],"city":"VERNIOZ","name":"MADAME MARION MAINGAUT","postcode":"38150","adress":"71 RTE DES ALPES","sector":"Activit� profess. r��ducation appareillage \u0026 p�dicures-podologues"},{"coord":[44.933334,4.9],"city":"VALENCE","name":"OPTIK 26","postcode":"26000","adress":"5 PLACE DE LA REPUBLIQUE","sector":"Commerces de d�tail d\u0027optique"},{"coord":[44.933334,4.9],"city":"VALENCE","name":"OPTIK 26","postcode":"26000","adress":"5 PL DE LA REPUBLIQUE","sector":"Commerces de d�tail d\u0027optique"},{"coord":[44.766666,4.85],"city":"LIVRON SUR DROME","name":"MONSIEUR DORIAN RIZZO","postcode":"26250","adress":"ROUTE DE SAVINAS","sector":"Autres travaux de finition"},{"coord":[45.05,5.05],"city":"ROMANS SUR ISERE","name":"MADAME MONIQUE MUSSINO","postcode":"26100","adress":"11 RUE LOUIS ROYANEZ","sector":"Activit�s des agents et courtiers d\u0027assurances"},{"coord":[44.95,4.883333],"city":"BOURG LES VALENCE","name":"MADAME MONIQUE MUSSINO","postcode":"26500","adress":"1 RUE AUGUSTE PERRET","sector":"Activit�s des agents et courtiers d\u0027assurances"},{"coord":[44.95,4.883333],"city":"BOURG LES VALENCE","name":"MONSIEUR FLORIAN MAZADE","postcode":"26500","adress":"512 QUARTIER DES BLACHES","sector":"R�paration d\u0027ordinateurs et d\u0027�quipements p�riph�riques"},{"coord":[44.95,4.883333],"city":"BOURG LES VALENCE","name":"MONSIEUR FLORIAN MAZADE","postcode":"26500","adress":"512 RTE DU PONT DE LA ROCHE","sector":"R�paration d\u0027ordinateurs et d\u0027�quipements p�riph�riques"},{"coord":[45.183334,4.733333],"city":"QUINTENAS","name":"ETABLISSEMENTS DEVERNAY","postcode":"7290","adress":"32 GRANDE RUE","sector":"Travaux d\u0027installation d\u0027eau et de gaz en tous locaux"},{"coord":[44.88333,4.85],"city":"SAINT PERAY","name":"DROME ARDECHE MULTISERVICES","postcode":"7130","adress":"19 ALL DU MISTRAL","sector":"Nettoyage courant des b�timents"},{"coord":[44.933334,4.9],"city":"VALENCE","name":"SCI JIKER","postcode":"26000","adress":"40 RUE DE LA CHAMBERLIERE","sector":"Location de logements"},{"coord":[44.783333,4.916667],"city":"PORTES LES VALENCE","name":"SARL DUVAL","postcode":"26800","adress":"12 RUE EDITH PIAF","sector":"Fonds de placement et entit�s financi�res similaires"},{"coord":[44.566666,4.75],"city":"MONTELIMAR","name":"MADAME PERRINE FAURE","postcode":"26200","adress":"35 RUE LOUIS CHARPENNE","sector":"Location de logements"},{"coord":[44.61667,4.716667],"city":"LE TEIL","name":"MADAME MARIE CECILE ALLAIN","postcode":"7400","adress":"RUE VINCENT TOUCHET","sector":"Autres commerces de d�tail sp�cialis�s divers"},{"coord":[44.88333,4.666667],"city":"VERNOUX EN VIVARAIS","name":"MONSIEUR YVES AIME","postcode":"7240","adress":"216 ALL M THERESE ET RAYMOND ETIENNE","sector":"Travaux de charpente"},{"coord":[44.88333,4.666667],"city":"VERNOUX EN VIVARAIS","name":"MONSIEUR YVES AIME","postcode":"7240","adress":"216 ALL M-THERESE ET RAYMOND ETIENNE","sector":"Travaux de charpente"},{"coord":[44.88333,4.666667],"city":"VERNOUX EN VIVARAIS","name":"MONSIEUR YVES AIME","postcode":"7240","adress":"TERRAS","sector":"Travaux de charpente"},{"coord":[44.916668,5.1],"city":"UPIE","name":"SCI DEEVENA","postcode":"26120","adress":"QUARTIER LA MALADIERE","sector":"Location de terrains et d\u0027autres biens immobiliers"},{"coord":[44.933334,4.9],"city":"VALENCE","name":"SCI DEEVENA","postcode":"26000","adress":"22 ALL DU CLOS DE L HORLOGE","sector":"Location de terrains et d\u0027autres biens immobiliers"},{"coord":[44.783333,4.916667],"city":"ETOILE SUR RHONE","name":"CREAEMF","postcode":"26800","adress":"345 A CHEMIN DES COLZAS","sector":"Vente � distance sur catalogue g�n�ral"},{"coord":[44.833332,4.666667],"city":"LES OLLIERES SUR EYRIEUX","name":"MADAME VALERIE MARMEY","postcode":"7360","adress":"79 IMP LA CHAVAT","sector":"Vente � distance sur catalogue g�n�ral"},{"coord":[45.216667,4.783333],"city":"ANDANCE","name":"MADAME BRIGITTE AZEMAR","postcode":"7340","adress":"4 RUE DU LT COLONEL MICHEL MEYRAND","sector":"Activit�s de sant� humaine non class�es ailleurs"},{"coord":[45.216667,4.783333],"city":"ANDANCE","name":"MADAME BRIGITTE AZEMAR","postcode":"7340","adress":"4 RUE DU LT COLONEL MICHEL MEYRAND","sector":"Activit�s de sant� humaine non class�es ailleurs"},{"coord":[44.933334,4.9],"city":"VALENCE","name":"MADAME LAETITIA GALLAND","postcode":"26000","adress":"23 RUE PAUL HENRI CHARLES SPAAK","sector":"Activit�s juridiques"},{"coord":[44.95,4.883333],"city":"BOURG LES VALENCE","name":"MONSIEUR JOSE FERRER","postcode":"26500","adress":"95 ROUTE DES SELLES","sector":"H�bergement touristique et autre h�bergement de courte dur�e"},{"coord":[44.95,4.883333],"city":"BOURG LES VALENCE","name":"MONSIEUR JOSE FERRER","postcode":"26500","adress":"95 RTE DES SELLES","sector":"H�bergement touristique et autre h�bergement de courte dur�e"},{"coord":[44.95,4.883333],"city":"BOURG LES VALENCE","name":"MADAME LAURENCE PASQUALE","postcode":"26500","adress":"QUARTIER DES BLACHES","sector":"Vente � domicile"},{"coord":[44.95,4.883333],"city":"BOURG LES VALENCE","name":"MADAME LAURENCE PASQUALE","postcode":"26500","adress":"723 RTE DU PONT DE LA ROCHE","sector":"Vente � domicile"},{"coord":[44.933334,4.9],"city":"VALENCE","name":"MADAME ANNELIEKE GILLOTOT","postcode":"26000","adress":"21 COTE DES CHAPELIERS","sector":"Activit�s juridiques"},{"coord":[44.65,4.866667],"city":"SAVASSE","name":"MONSIEUR PHILIPPE OMNES","postcode":"26740","adress":"435 CHEMIN LA FRIGOULETTE","sector":"Autres activit�s r�cr�atives et de loisirs"},{"coord":[45.25,5.25],"city":"MONTFALCON","name":"APEX 7","postcode":"38940","adress":"CHEMIN DU BOSSU","sector":"Production d\u0027�lectricit�"},{"coord":[44.65,4.766667],"city":"CRUAS","name":"MADAME NADIA TEBOUL","postcode":"7350","adress":"24 AVENUE DE L EUROPE","sector":"Vente � distance sur catalogue sp�cialis�"},{"coord":[44.88333,4.666667],"city":"VERNOUX EN VIVARAIS","name":"TAXI PARISET","postcode":"7240","adress":"16 PL PASTEUR","sector":"Activit�s des si�ges sociaux"},{"coord":[44.88333,4.666667],"city":"VERNOUX EN VIVARAIS","name":"TAXI PARISET","postcode":"7240","adress":"16 PL PASTEUR","sector":"Transports de voyageurs par taxis"},{"coord":[45.033333,5.183333],"city":"CHATEAUNEUF SUR ISERE","name":"NLA DISTRIB","postcode":"26300","adress":"5 PL DE L\u0027EGLISE","sector":"Activit�s des si�ges sociaux"},{"coord":[45.033333,5.183333],"city":"CHATEAUNEUF SUR ISERE","name":"NLA DISTRIB","postcode":"26300","adress":"5 PL DE L\u0027EGLISE","sector":"Supermarch�s"},{"coord":[45.033333,5.183333],"city":"CHATEAUNEUF SUR ISERE","name":"NLA DISTRIB","postcode":"26300","adress":"RTE DU BOURG","sector":"Commerce de d�tail de carburants en magasin sp�cialis�"},{"coord":[45.05,5.05],"city":"ROMANS SUR ISERE","name":"TISSAGE DE FRANCE","postcode":"26100","adress":"49 AV GAMBETTA","sector":"Tissage"},{"coord":[45.05,5.05],"city":"ROMANS SUR ISERE","name":"TISSAGE DE FRANCE","postcode":"26100","adress":"49 AV GAMBETTA","sector":"Activit�s des si�ges sociaux"},{"coord":[44.933334,4.9],"city":"VALENCE","name":"ACT2L","postcode":"26000","adress":"5 RUE JEAN BERTIN","sector":"Activit�s juridiques"},{"coord":[45.15,5.05],"city":"CLERIEUX","name":"PONT DE L\u0027HERBASSE","postcode":"26260","adress":"35 CHE DES AUBERGES","sector":"Location de terrains et d\u0027autres biens immobiliers"},{"coord":[45.033333,5.183333],"city":"BOURG DE PEAGE","name":"ECAD BAT","postcode":"26300","adress":"17 B AV RAPHAELE LUPIS","sector":"Travaux d\u0027installation �lectrique dans tous locaux"},{"coord":[45.3,5.116667],"city":"MOISSIEU SUR DOLON","name":"MADAME VIVIANE CHAMPLONG","postcode":"38270","adress":"MONTEE DU CHENE","sector":"P�tisserie"},{"coord":[44.566666,4.75],"city":"MONTELIMAR","name":"L.A MAROQUINERIE","postcode":"26200","adress":"3 RUE ROGER POYOL","sector":"Commerce de d�tail de maroquinerie et d\u0027articles de voyage"},{"coord":[44.566666,4.75],"city":"MONTELIMAR","name":"JR","postcode":"26200","adress":"3 AV SAINT MARTIN","sector":"Activit�s des soci�t�s holding"},{"coord":[45.05,5.05],"city":"ROMANS SUR ISERE","name":"OLAP","postcode":"26100","adress":"2 BD MARX DORMOY","sector":"Location de logements"},{"coord":[44.933334,4.9],"city":"VALENCE","name":"SCI BACOT","postcode":"26000","adress":"QUA JOBERT","sector":"Location de terrains et d\u0027autres biens immobiliers"},{"coord":[45.05,5.05],"city":"ROMANS SUR ISERE","name":"TRUCHET CONSTRUCTION","postcode":"26100","adress":"18 CRS PIERRE DIDIER","sector":"Promotion immobili�re de logements"},{"coord":[45.033333,5.183333],"city":"CHATEAUNEUF SUR ISERE","name":"LILA","postcode":"26300","adress":"425 RTE DE VIALON","sector":"Activit�s des si�ges sociaux"},{"coord":[44.933334,4.9],"city":"VALENCE","name":"MADAME MARIYA FOMICHEVA DIVIANI","postcode":"26000","adress":"77 RUE DENIS PAPIN","sector":"Enseignement culturel"},{"coord":[44.566666,4.75],"city":"MONTELIMAR","name":"MADAME AMANDINE LUCZKIEWICZ","postcode":"26200","adress":"3 IMP DU PLAN","sector":"Vente � domicile"},{"coord":[44.95,4.883333],"city":"BOURG LES VALENCE","name":"MADAME LOLA DE FRANCESCHI","postcode":"26500","adress":"2 AV JEAN SAINT MARC","sector":"Activit�s sp�cialis�es de design"},{"coord":[45.35,4.9],"city":"LA CHAPELLE DE SURIEU","name":"MADAME MIREILLE BOULANGER","postcode":"38150","adress":"5 RUE CHEMIN DU FAN","sector":"Autres services personnels n.c.a."},{"coord":[44.516666,4.816667],"city":"ALLAN","name":"RAFAU 2","postcode":"26780","adress":"69 IMP DE LA PIERRE BLANCHE","sector":"Activit�s des si�ges sociaux"},{"coord":[45.233334,4.583333],"city":"SAINT ANDRE EN VIVARAIS","name":"LES AMIS DU CHATEAU DE MONTIVERT","postcode":"7690","adress":"","sector":"Autres organisations fonctionnant par adh�sion volontaire"},{"coord":[45.05,5.05],"city":"ROMANS SUR ISERE","name":"MADAME ELODIE GAUTHIER","postcode":"26100","adress":"25 RUE PECHERIE","sector":"Activit�s sp�cialis�es de design"},{"coord":[44.86667,4.966667],"city":"MONTELEGER","name":"MONSIEUR MAXIME COSTA","postcode":"26760","adress":"1068 CHE DES EAUX","sector":"Fabrication autres meubles \u0026 industries connexes de l\u0027ameublement"},{"coord":[44.88333,4.666667],"city":"SAINT JEAN CHAMBRE","name":"MONSIEUR EMERIC CHEVIN","postcode":"7240","adress":"LAFAURIE","sector":"Travaux d\u0027installation �lectrique dans tous locaux"}]